NORAD_CAT_ID,OBJECT_NAME,OBJECT_TYPE,EPOCH,MEAN_MOTION,ECCENTRICITY,INCLINATION,RA_OF_ASC_NODE,ARG_OF_PERICENTER,MEAN_ANOMALY,BSTAR,MEAN_MOTION_DOT,MEAN_MOTION_DDOT,TLE_LINE0,TLE_LINE1,TLE_LINE2,SEMIMAJOR_AXIS,PERIOD,APOGEE,PERIGEE,DECAYED
52699.0,STARLINK-3987,PAYLOAD,2022-07-09 04:00:00,15.73314251,0.0002284,53.2163,41.7857,23.3656,305.178,-0.0016576,-0.00228214,0.0,0 STARLINK-3987,1 52699U 22053AV  22190.16667824 -.00228214  00000-0 -16576-2 0  9995,2 52699  53.2163  41.7857 0002284  23.3656 305.1780 15.73314251  8460,6727.569,91.527,350.971,347.898,0.0
52699.0,STARLINK-3987,PAYLOAD,2022-07-09 14:00:01,15.73074164,0.0002121,53.2166,39.7223,33.3652,136.3596,-0.0004417,-0.00061831,0.0,0 STARLINK-3987,1 52699U 22053AV  22190.58334491 -.00061831  00000-0 -44170-3 0  9994,2 52699  53.2166  39.7223 0002121  33.3652 136.3596 15.73074164  1305,6728.254,91.541,351.546,348.69199999999995,0.0
52699.0,STARLINK-3987,PAYLOAD,2022-07-09 20:00:01,15.7301068,0.0002217,53.2165,38.4871,25.5321,120.765,0.00039675,0.00054979,0.0,0 STARLINK-3987,1 52699U 22053AV  22190.83334491  .00054979  00000-0  39675-3 0  9999,2 52699  53.2165  38.4871 0002217  25.5321 120.7650 15.73010680  8567,6728.435,91.544,351.792,348.80800000000005,0.0
52699.0,STARLINK-3987,PAYLOAD,2022-07-10 06:00:00,15.73139733,0.0002107,53.2167,36.4251,20.8087,326.389,0.00011831,0.00015973,0.0,0 STARLINK-3987,1 52699U 22053AV  22191.25001157  .00015973  00000-0  11831-3 0  9991,2 52699  53.2167  36.4251 0002107  20.8087 326.3890 15.73139733  8633,6728.066999999999,91.537,351.35,348.514,0.0
52699.0,STARLINK-3987,PAYLOAD,2022-07-10 14:00:01,15.73163679,0.000208,53.2171,34.7743,27.2755,48.7778,0.0010366,0.00147211,0.0,0 STARLINK-3987,1 52699U 22053AV  22191.58334491  .00147211  00000-0  10366-2 0  9999,2 52699  53.2171  34.7743 0002080  27.2755  48.7778 15.73163679  8689,6727.999,91.535,351.26300000000015,348.464,0.0
52699.0,STARLINK-3987,PAYLOAD,2022-07-10 22:00:00,15.73256863,0.0002229,53.2173,33.123000000000005,21.0801,143.8867,0.00067451,0.00095362,0.0,0 STARLINK-3987,1 52699U 22053AV  22191.91667824  .00095362  00000-0  67451-3 0  9992,2 52699  53.2173  33.1230 0002229  21.0801 143.8867 15.73256863  8734,6727.733,91.53,351.098,348.098,0.0
52699.0,STARLINK-3987,PAYLOAD,2022-07-11 06:00:00,15.73246544,0.0002174,53.2164,31.4766,19.3884,234.5303,7.6161e-05,0.00010102,0.0,0 STARLINK-3987,1 52699U 22053AV  22192.25001157  .00010102  00000-0  76161-4 0  9999,2 52699  53.2164  31.4766 0002174  19.3884 234.5303 15.73246544  8793,6727.762,91.53,351.09,348.165,0.0
52699.0,STARLINK-3987,PAYLOAD,2022-07-11 14:00:01,15.73305794,0.0002085,53.2166,29.8264,22.7222,320.1782,-0.0003191,-0.00045371,0.0,0 STARLINK-3987,1 52699U 22053AV  22192.58334491 -.00045371  00000-0 -31910-3 0  9995,2 52699  53.2166  29.8264 0002085  22.7222 320.1782 15.73305794  1300,6727.594,91.527,350.861,348.056,0.0
52699.0,STARLINK-3987,PAYLOAD,2022-07-11 22:00:00,15.73234029,0.0002364,53.2165,28.1788,22.7402,49.1964,0.00020719,0.000286,0.0,0 STARLINK-3987,1 52699U 22053AV  22192.91667824  .00028600  00000-0  20719-3 0  9990,2 52699  53.2165  28.1788 0002364  22.7402  49.1964 15.73234029  1304,6727.7980000000025,91.531,351.254,348.0730000000001,0.0
52699.0,STARLINK-3987,PAYLOAD,2022-07-12 14:00:01,15.73223424,0.0002237,53.2169,24.8772,24.6068,225.3043,3.7931e-05,4.71e-05,0.0,0 STARLINK-3987,1 52699U 22053AV  22193.58334491  .00004710  00000-0  37931-4 0  9996,2 52699  53.2169  24.8772 0002237  24.6068 225.3043 15.73223424  9000,6727.828,91.532,351.1980000000001,348.18800000000016,0.0
52699.0,STARLINK-3987,PAYLOAD,2022-07-12 22:00:00,15.73241705,0.0002496,53.2167,23.2295,21.7672,317.1141,-0.0001375999999999,-0.00019925,0.0,0 STARLINK-3987,1 52699U 22053AV  22193.91667824 -.00019925  00000-0 -13760-3 0  9991,2 52699  53.2167  23.2295 0002496  21.7672 317.1141 15.73241705  1303,6727.776,91.531,351.321,347.962,0.0
52699.0,STARLINK-3987,PAYLOAD,2022-07-13 14:00:01,15.73194662,0.0002263,53.2166,19.9285,23.0558,133.7291,-0.00018643,-0.000267,0.0,0 STARLINK-3987,1 52699U 22053AV  22194.58334491 -.00026700  00000-0 -18643-3 0  9990,2 52699  53.2166  19.9285 0002263  23.0558 133.7291 15.73194662  9151,6727.91,91.533,351.298,348.25300000000016,0.0
52699.0,STARLINK-3987,PAYLOAD,2022-07-13 22:00:00,15.73149472,0.0002623,53.2165,18.2796,20.4414,225.2611,0.00011764,0.00015886,0.0,0 STARLINK-3987,1 52699U 22053AV  22194.91667824  .00015886  00000-0  11764-3 0  9994,2 52699  53.2165  18.2796 0002623  20.4414 225.2611 15.73149472  1302,6728.0390000000025,91.536,351.6690000000001,348.139,0.0
52699.0,STARLINK-3987,PAYLOAD,2022-07-14 04:00:00,15.73157547,0.0002451,53.2164,17.0389,21.9556,200.353,-0.00017689,-0.00025331,0.0,0 STARLINK-3987,1 52699U 22053AV  22195.16667824 -.00025331  00000-0 -17689-3 0  9992,2 52699  53.2164  17.0389 0002451  21.9556 200.3530 15.73157547  9256,6728.016,91.536,351.53,348.232,0.0
52699.0,STARLINK-3987,PAYLOAD,2022-07-14 14:00:01,15.73261808,0.0002516,53.2171,14.9696,18.5158,44.8557,-0.0068492,-0.00870554,0.0,0 STARLINK-3987,1 52699U 22053AV  22195.58334491 -.00870554  00000-0 -68492-2 0  9991,2 52699  53.2171  14.9696 0002516  18.5158  44.8557 15.73261808  9316,6727.719,91.53,351.277,347.891,0.0
52699.0,STARLINK-3987,PAYLOAD,2022-07-14 22:00:00,15.7262799,0.0002346,53.2175,13.3174,21.0759,130.9258,-0.0084855,-0.01046892,0.0,0 STARLINK-3987,1 52699U 22053AV  22195.91667824 -.01046892  00000-0 -84855-2 0  9999,2 52699  53.2175  13.3174 0002346  21.0759 130.9258 15.72627990  9368,6729.526,91.566,352.97,349.81300000000016,0.0
52699.0,STARLINK-3987,PAYLOAD,2022-07-15 14:00:01,15.7111515,0.0002435,53.2175,10.0147,14.1106,312.5438,-0.009144,-0.01056526,0.0,0 STARLINK-3987,1 52699U 22053AV  22196.58334491 -.01056526  00000-0 -91440-2 0  9997,2 52699  53.2175  10.0147 0002435  14.1106 312.5438 15.71115150  9479,6733.846,91.655,357.35,354.071,0.0
52699.0,STARLINK-3987,PAYLOAD,2022-07-15 22:00:00,15.70354804,0.0002179,53.2173,8.3687,348.9077,63.7038,-0.0094203,-0.01054164,0.0,0 STARLINK-3987,1 52699U 22053AV  22196.91667824 -.01054164  00000-0 -94203-2 0  9999,2 52699  53.2173   8.3687 0002179 348.9077  63.7038 15.70354804  1301,6736.019,91.699,359.352,356.416,0.0
52699.0,STARLINK-3987,PAYLOAD,2022-07-16 14:00:01,15.68833683,0.0001548,53.2175,5.0772,43.7897,178.0017,-0.010002,-0.01050389,0.0,0 STARLINK-3987,1 52699U 22053AV  22197.58334491 -.01050389  00000-0 -10002-1 0  9993,2 52699  53.2175   5.0772 0001548  43.7897 178.0017 15.68833683  9636,6740.373000000001,91.788,363.281,361.194,0.0
52699.0,STARLINK-3987,PAYLOAD,2022-07-16 22:00:00,15.6807334,0.0001176,53.2174,3.4366,56.5132,248.4974,-0.010299,-0.01048152,0.0,0 STARLINK-3987,1 52699U 22053AV  22197.91667824 -.01048152  00000-0 -10299-1 0  9992,2 52699  53.2174   3.4366 0001176  56.5132 248.4974 15.68073340  1303,6742.551,91.832,365.209,363.62300000000016,0.0
52699.0,STARLINK-3987,PAYLOAD,2022-07-17 06:00:00,15.67314434,0.0001116,53.2175,1.7941,53.9175,333.4019,-0.010644,-0.01049762,0.0,0 STARLINK-3987,1 52699U 22053AV  22198.25001157 -.01049762  00000-0 -10644-1 0  9993,2 52699  53.2175   1.7941 0001116  53.9175 333.4019 15.67314434  9737,6744.728,91.877,367.345,365.84,0.0
52699.0,STARLINK-3987,PAYLOAD,2022-07-17 14:00:01,15.66555595,0.0001392,53.2176,0.1564,47.7968,60.9165,-0.010985,-0.0105035,0.0,0 STARLINK-3987,1 52699U 22053AV  22198.58334491 -.01050350  00000-0 -10985-1 0  9992,2 52699  53.2176   0.1564 0001392  47.7968  60.9165 15.66555595  1302,6746.906,91.921,369.71,367.831,0.0
52699.0,STARLINK-3987,PAYLOAD,2022-07-17 20:00:01,15.65985527,0.0001418,53.2175,358.93,44.9424,34.2173,-0.011229,-0.01049231,0.0,0 STARLINK-3987,1 52699U 22053AV  22198.83334491 -.01049231  00000-0 -11229-1 0  9998,2 52699  53.2175 358.9300 0001418  44.9424  34.2173 15.65985527  9827,6748.543000000002,91.955,371.365,369.451,0.0
52699.0,STARLINK-3987,PAYLOAD,2022-07-17 22:00:00,15.65791879,0.000146,53.2172,358.521,49.9068,139.2891,-0.011237,-0.01042542,0.0,0 STARLINK-3987,1 52699U 22053AV  22198.91667824 -.01042542  00000-0 -11237-1 0  9993,2 52699  53.2172 358.5210 0001460  49.9068 139.2891 15.65791879  1309,6749.099,91.966,371.95,369.979,0.0
52699.0,STARLINK-3987,PAYLOAD,2022-07-18 14:00:01,15.64278393,0.0001332,53.2174,355.25199999999984,43.6314,303.7893,-0.012057,-0.01051506,0.0,0 STARLINK-3987,1 52699U 22053AV  22199.58334491 -.01051506  00000-0 -12057-1 0  9999,2 52699  53.2174 355.2520 0001332  43.6314 303.7893 15.64278393  9940,6753.4519999999975,92.055,376.216,374.417,0.0
52699.0,STARLINK-3987,PAYLOAD,2022-07-18 22:00:00,15.63516135,0.0001486999999999,53.2172,353.6222,37.6375,27.5275,-0.012357,-0.01046117,0.0,0 STARLINK-3987,1 52699U 22053AV  22199.91667824 -.01046117  00000-0 -12357-1 0  9990,2 52699  53.2172 353.6222 0001487  37.6375  27.5275 15.63516135  1305,6755.647,92.1,378.516,376.507,0.0
52699.0,STARLINK-3987,PAYLOAD,2022-07-19 14:00:01,15.61996736,0.0001506999999999,53.2177,350.3645,48.8248,169.0911,-0.01311,-0.01061622,0.0,0 STARLINK-3987,1 52699U 22053AV  22200.58334491 -.01061622  00000-0 -13110-1 0  9993,2 52699  53.2177 350.3645 0001507  48.8248 169.0911 15.61996736 10103,6760.026999999999,92.19,382.911,380.87300000000016,0.0
52699.0,STARLINK-3987,PAYLOAD,2022-07-19 22:00:00,15.61238684,0.0001306,53.2172,348.7398,48.9793,243.9412,-0.01352,-0.01062735,0.0,0 STARLINK-3987,1 52699U 22053AV  22200.91667824 -.01062735  00000-0 -13520-1 0  9990,2 52699  53.2172 348.7398 0001306  48.9793 243.9412 15.61238684  1308,6762.215,92.234,384.963,383.197,0.0
52699.0,STARLINK-3987,PAYLOAD,2022-07-20 14:00:01,15.59719259,0.000162,53.2175,345.4935,36.5069,43.6886,-0.014341,-0.01063027,0.0,0 STARLINK-3987,1 52699U 22053AV  22201.58334491 -.01063027  00000-0 -14341-1 0  9992,2 52699  53.2175 345.4935 0001620  36.5069  43.6886 15.59719259  1309,6766.606,92.324,389.567,387.375,0.0
